[{"OBJECT_NAME":"GRUS-1E","OBJECT_ID":"2021-022D","EPOCH":"2026-03-09T21:59:56.793984","MEAN_MOTION":14.99580708,"ECCENTRICITY":0.00128752,"INCLINATION":97.5572,"RA_OF_ASC_NODE":316.384,"ARG_OF_PERICENTER":314.1526,"MEAN_ANOMALY":45.8638,"EPHEMERIS_TYPE":0,"CLASSIFICATION_TYPE":"U","NORAD_CAT_ID":47935,"ELEMENT_SET_NO":999,"REV_AT_EPOCH":27107,"BSTAR":0.00017718433,"MEAN_MOTION_DOT":2.125e-5,"MEAN_MOTION_DDOT":0},{"OBJECT_NAME":"STARLINK-34052","OBJECT_ID":"2025-094L","EPOCH":"2026-03-09T21:55:28.912512","MEAN_MOTION":14.98352171,"ECCENTRICITY":0.00029817,"INCLINATION":70.0019,"RA_OF_ASC_NODE":234.0106,"ARG_OF_PERICENTER":274.332,"MEAN_ANOMALY":85.7499,"EPHEMERIS_TYPE":0,"CLASSIFICATION_TYPE":"U","NORAD_CAT_ID":63874,"ELEMENT_SET_NO":999,"REV_AT_EPOCH":4723,"BSTAR":0.00022153294,"MEAN_MOTION_DOT":2.553e-5,"MEAN_MOTION_DDOT":0}]
